NORAD_CAT_ID,OBJECT_NAME,OBJECT_TYPE,EPOCH,MEAN_MOTION,ECCENTRICITY,INCLINATION,RA_OF_ASC_NODE,ARG_OF_PERICENTER,MEAN_ANOMALY,BSTAR,MEAN_MOTION_DOT,MEAN_MOTION_DDOT,TLE_LINE0,TLE_LINE1,TLE_LINE2,SEMIMAJOR_AXIS,PERIOD,APOGEE,PERIGEE,DECAYED
55657.0,STARLINK-5328,PAYLOAD,2024-01-12 08:14:20,14.98325434,0.0002407,70.0007,349.8,264.2249,95.8636,3.2718e-05,2.97e-06,0.0,0 STARLINK-5328,1 55657U 23021AF  24012.34329447  .00000297  00000-0  32718-4 0  9994,2 55657  70.0007 349.8000 0002407 264.2249  95.8636 14.98325434 51343,6950.207,96.107,573.745,570.399,0.0
55657.0,STARLINK-5328,PAYLOAD,2024-01-12 22:39:33,14.98329193,0.0002554,70.0004,348.2839,272.5704,87.5162,1.0876e-05,3.7e-07,0.0,0 STARLINK-5328,1 55657U 23021AF  24012.94413210  .00000037  00000-0  10876-4 0  9995,2 55657  70.0004 348.2839 0002554 272.5704  87.5162 14.98329193 51432,6950.195,96.107,573.835,570.285,0.0
55657.0,STARLINK-5328,PAYLOAD,2024-01-13 03:27:57,14.98329479,0.000256,70.0004,347.7789,272.2868,87.7998,1.4217e-05,7.7e-07,0.0,0 STARLINK-5328,1 55657U 23021AF  24013.14441188  .00000077  00000-0  14217-4 0  9990,2 55657  70.0004 347.7789 0002560 272.2868  87.7998 14.98329479 51161,6950.195,96.107,573.839,570.28,0.0
55657.0,STARLINK-5328,PAYLOAD,2024-01-13 08:16:21,14.98333005,0.0002511,70.0006,347.2742,271.8411,88.2461,5.5385e-05,5.68e-06,0.0,0 STARLINK-5328,1 55657U 23021AF  24013.34468840  .00000568  00000-0  55385-4 0  9992,2 55657  70.0006 347.2742 0002511 271.8411  88.2461 14.98333005 51499,6950.184,96.107,573.794,570.303,0.0
55657.0,STARLINK-5328,PAYLOAD,2024-01-14 03:29:58,14.98327236,0.0002572,70.0005,345.2539,271.9939,88.0925,5.0143e-06,-3.3e-07,0.0,0 STARLINK-5328,1 55657U 23021AF  24014.14581333 -.00000033  00000-0  50143-5 0  9990,2 55657  70.0005 345.2539 0002572 271.9939  88.0925 14.98327236 51316,6950.201,96.107,573.854,570.279,0.0
55657.0,STARLINK-5328,PAYLOAD,2024-01-14 08:18:22,14.98331675,0.0002514,70.0005,344.7487,270.9426,89.1445,5.6416e-05,5.8e-06,0.0,0 STARLINK-5328,1 55657U 23021AF  24014.34608909  .00000580  00000-0  56416-4 0  9995,2 55657  70.0005 344.7487 0002514 270.9426  89.1445 14.98331675 51645,6950.188,96.107,573.8,570.305,0.0
55657.0,STARLINK-5328,PAYLOAD,2024-01-14 22:43:34,14.98335663,0.0002487,70.0005,343.2341,261.1149,98.9728,3.061e-05,2.72e-06,0.0,0 STARLINK-5328,1 55657U 23021AF  24014.94692565  .00000272  00000-0  30610-4 0  9998,2 55657  70.0005 343.2341 0002487 261.1149  98.9728 14.98335663 51734,6950.175,96.107,573.769,570.312,0.0
55657.0,STARLINK-5328,PAYLOAD,2024-01-15 06:44:14,14.98337902,0.0002438,70.0007,342.3926,261.3811,98.7072,5.7103e-05,5.89e-06,0.0,0 STARLINK-5328,1 55657U 23021AF  24015.28072224  .00000589  00000-0  57103-4 0  9997,2 55657  70.0007 342.3926 0002438 261.3811  98.7072 14.98337902 51489,6950.168,96.106,573.728,570.339,0.0
55657.0,STARLINK-5328,PAYLOAD,2024-01-16 00:21:43,14.98323738,0.0002198,70.0021,340.5432,232.1383,127.9577,2.0553e-05,1.52e-06,0.0,0 STARLINK-5328,1 55657U 23021AF  24016.01509198  .00000152  00000-0  20553-4 0  9999,2 55657  70.0021 340.5432 0002198 232.1383 127.9577 14.98323738 51599,6950.212,96.107,573.605,570.55,0.0
55657.0,STARLINK-5328,PAYLOAD,2024-01-16 08:22:24,14.98319851,0.0002281,70.0013,339.7002,253.02,107.0709,-4.525e-05,-6.33e-06,0.0,0 STARLINK-5328,1 55657U 23021AF  24016.34889668 -.00000633  00000-0 -45250-4 0  9995,2 55657  70.0013 339.7002 0002281 253.0200 107.0709 14.98319851 51649,6950.224,96.108,573.675,570.504,0.0
55657.0,STARLINK-5328,PAYLOAD,2024-01-16 22:47:36,14.98327791,0.0002786,70.0012,338.1875,258.3615,101.7232,3.8764e-05,3.7e-06,0.0,0 STARLINK-5328,1 55657U 23021AF  24016.94972835  .00000370  00000-0  38764-4 0  9998,2 55657  70.0012 338.1875 0002786 258.3615 101.7232 14.98327791 52035,6950.2,96.107,574.001,570.128,0.0
55657.0,STARLINK-5328,PAYLOAD,2024-01-17 03:36:00,14.98331593,0.0002966,70.001,337.6818,263.5173,96.5648,7.5508e-06,-3e-08,0.0,0 STARLINK-5328,1 55657U 23021AF  24017.15000705 -.00000003  00000-0  75508-5 0  9992,2 55657  70.0010 337.6818 0002966 263.5173  96.5648 14.98331593 51767,6950.188,96.107,574.114,569.992,0.0
55657.0,STARLINK-5328,PAYLOAD,2024-01-17 05:12:06,14.98423231,0.0003004,70.0013,337.5133,245.1628,114.9219,-0.001512,-0.00018131,0.0,0 STARLINK-5328,1 55657U 23021AF  24017.21674496 -.00018131  00000-0 -15120-2 0  9996,2 55657  70.0013 337.5133 0003004 245.1628 114.9219 14.98423231 51775,6949.905,96.101,573.857,569.682,0.0
55657.0,STARLINK-5328,PAYLOAD,2024-01-17 22:49:37,14.98326269,0.0002571,70.0015,335.6629,240.9738,119.1164,8.1126e-05,8.75e-06,0.0,0 STARLINK-5328,1 55657U 23021AF  24017.95112731  .00000875  00000-0  81126-4 0  9991,2 55657  70.0015 335.6629 0002571 240.9738 119.1164 14.98326269 52184,6950.204,96.107,573.856,570.283,0.0
55657.0,STARLINK-5328,PAYLOAD,2024-01-18 03:38:01,14.98325825,0.0002581,70.0015,335.1579,241.1032,118.9868,6.9716e-05,7.39e-06,0.0,0 STARLINK-5328,1 55657U 23021AF  24018.15140835  .00000739  00000-0  69716-4 0  9990,2 55657  70.0015 335.1579 0002581 241.1032 118.9868 14.98325825 51919,6950.206,96.107,573.865,570.277,0.0
55657.0,STARLINK-5328,PAYLOAD,2024-01-18 06:50:17,14.9832664,0.0002576,70.001,334.8192,253.1153,106.9724,7.7358e-05,8.3e-06,0.0,0 STARLINK-5328,1 55657U 23021AF  24018.28492832  .00000830  00000-0  77358-4 0  9994,2 55657  70.0010 334.8192 0002576 253.1153 106.9724 14.98326640 52232,6950.203,96.107,573.859,570.278,0.0
55657.0,STARLINK-5328,PAYLOAD,2024-01-18 21:15:30,14.9832949,0.0002533,70.001,333.3042,257.1751,102.9125,3.5398e-05,3.29e-06,0.0,0 STARLINK-5328,1 55657U 23021AF  24018.88576776  .00000329  00000-0  35398-4 0  9991,2 55657  70.0010 333.3042 0002533 257.1751 102.9125 14.98329490 52328,6950.194,96.107,573.82,570.299,0.0
55657.0,STARLINK-5328,PAYLOAD,2024-01-19 03:40:02,14.98330175,0.000256,70.0009,332.6312,254.0784,106.0093,1.0666e-05,3.4e-07,0.0,0 STARLINK-5328,1 55657U 23021AF  24019.15280799  .00000034  00000-0  10666-4 0  9993,2 55657  70.0009 332.6312 0002560 254.0784 106.0093 14.98330175 52062,6950.192,96.107,573.837,570.278,0.0
55657.0,STARLINK-5328,PAYLOAD,2024-01-19 06:52:18,14.98331284,0.0002591,70.001,332.2948,257.0532,103.0338,2.2242e-05,1.72e-06,0.0,0 STARLINK-5328,1 55657U 23021AF  24019.28632693  .00000172  00000-0  22242-4 0  9997,2 55657  70.0010 332.2948 0002591 257.0532 103.0338 14.98331284 52389,6950.189,96.107,573.855,570.253,0.0
55657.0,STARLINK-5328,PAYLOAD,2024-01-19 22:53:39,14.98331934,0.0002621,70.0008,330.6117,258.4073,101.6792,1.6586e-05,1.05e-06,0.0,0 STARLINK-5328,1 55657U 23021AF  24019.95392533  .00000105  00000-0  16586-4 0  9997,2 55657  70.0008 330.6117 0002621 258.4073 101.6792 14.98331934 52486,6950.187,96.107,573.874,570.23,0.0
55657.0,STARLINK-5328,PAYLOAD,2024-01-20 03:42:03,14.98332874,0.00026,70.0008,330.1067,258.2582,101.8286,2.8277e-05,2.44e-06,0.0,0 STARLINK-5328,1 55657U 23021AF  24020.15420411  .00000244  00000-0  28277-4 0  9992,2 55657  70.0008 330.1067 0002600 258.2582 101.8286 14.98332874 52210,6950.184,96.107,573.856,570.242,0.0
55657.0,STARLINK-5328,PAYLOAD,2024-01-20 06:54:19,14.98347825,0.0002315,70.0009,329.769,265.6257,94.4638,-0.00021249,-2.628e-05,0.0,0 STARLINK-5328,1 55657U 23021AF  24020.28772061 -.00002628  00000-0 -21249-3 0  9998,2 55657  70.0009 329.7690 0002315 265.6257  94.4638 14.98347825 52233,6950.138,96.106,573.612,570.394,0.0
55657.0,STARLINK-5328,PAYLOAD,2024-01-20 19:43:24,14.98295486,0.0002341,70.0011,328.4223,264.8294,95.2598,0.00053333,6.271e-05,0.0,0 STARLINK-5328,1 55657U 23021AF  24020.82180878  .00006271  00000-0  53333-3 0  9992,2 55657  70.0011 328.4223 0002341 264.8294  95.2598 14.98295486 52313,6950.3,96.109,573.792,570.538,0.0
55657.0,STARLINK-5328,PAYLOAD,2024-01-20 22:55:40,14.98327551,0.0002475,70.001,328.0855,266.9032,93.1844,-1.5473e-05,-2.78e-06,0.0,0 STARLINK-5328,1 55657U 23021AF  24020.95532863 -.00000278  00000-0 -15473-4 0  9998,2 55657  70.0010 328.0855 0002475 266.9032  93.1844 14.98327551 52635,6950.2,96.107,573.786,570.345,0.0
55657.0,STARLINK-5328,PAYLOAD,2024-01-21 03:44:04,14.98326781,0.0002491,70.001,327.5805,266.4995,93.5879,-2.4239e-05,-3.82e-06,0.0,0 STARLINK-5328,1 55657U 23021AF  24021.15560957 -.00000382  00000-0 -24239-4 0  9992,2 55657  70.0010 327.5805 0002491 266.4995  93.5879 14.98326781 52361,6950.203,96.107,573.799,570.337,0.0
55657.0,STARLINK-5328,PAYLOAD,2024-01-21 05:20:12,14.98327809,0.0002482,70.0011,327.4123,267.167,92.9205,-1.1836e-05,-2.34e-06,0.0,0 STARLINK-5328,1 55657U 23021AF  24021.22236880 -.00000234  00000-0 -11836-4 0  9990,2 55657  70.0011 327.4123 0002482 267.1670  92.9205 14.98327809 52674,6950.2,96.107,573.79,570.34,0.0
55657.0,STARLINK-5328,PAYLOAD,2024-01-21 22:57:41,14.98330969,0.0002479,70.001,325.5602,263.7812,96.3065,-5.8847e-06,-1.63e-06,0.0,0 STARLINK-5328,1 55657U 23021AF  24021.95672592 -.00000163  00000-0 -58847-5 0  9999,2 55657  70.0010 325.5602 0002479 263.7812  96.3065 14.98330969 52785,6950.19,96.107,573.778,570.332,0.0
55657.0,STARLINK-5328,PAYLOAD,2024-01-22 03:46:05,14.98331299,0.000247,70.001,325.0552,263.3208,96.767,1.4896e-07,-9.1e-07,0.0,0 STARLINK-5328,1 55657U 23021AF  24022.15700538 -.00000091  00000-0  14896-6 0  9990,2 55657  70.0010 325.0552 0002470 263.3208  96.7670 14.98331299 52514,6950.189,96.107,573.771,570.337,0.0
55657.0,STARLINK-5328,PAYLOAD,2024-01-22 05:22:13,14.98332596,0.0002463,70.0011,324.8869,263.3818,96.7061,1.5289e-05,9e-07,0.0,0 STARLINK-5328,1 55657U 23021AF  24022.22376419  .00000090  00000-0  15289-4 0  9998,2 55657  70.0011 324.8869 0002463 263.3818  96.7061 14.98332596 52821,6950.185,96.107,573.762,570.338,0.0
55657.0,STARLINK-5328,PAYLOAD,2024-01-22 22:59:41,14.98329315,0.000249,70.0011,323.0352,257.1984,102.8897,4.8931e-05,4.91e-06,0.0,0 STARLINK-5328,1 55657U 23021AF  24022.95812399  .00000491  00000-0  48931-4 0  9995,2 55657  70.0011 323.0352 0002490 257.1984 102.8897 14.98329315 52937,6950.195,96.107,573.791,570.329,0.0
